OBJECT_NAME,OBJECT_ID,EPOCH,MEAN_MOTION,ECCENTRICITY,INCLINATION,RA_OF_ASC_NODE,ARG_OF_PERICENTER,MEAN_ANOMALY,EPHEMERIS_TYPE,CLASSIFICATION_TYPE,NORAD_CAT_ID,ELEMENT_SET_NO,REV_AT_EPOCH,BSTAR,MEAN_MOTION_DOT,MEAN_MOTION_DDOT
GSAT0225 (GALILEO 29),2024-079A,2026-07-17T00:32:37.366944,1.70473788,.00005232,55.1373,100.2459,335.7440,200.6347,0,U,59598,999,1382,0,-.28E-6,0
GSAT0227 (GALILEO 30),2024-079C,2026-07-18T02:12:23.833728,1.70473877,.000295,55.1327,100.2144,69.2435,290.8270,0,U,59600,999,1389,0,-.31E-6,0
GSAT0232 (GALILEO 32),2024-167A,2026-07-18T07:57:56.457216,1.70474036,.0006523,55.1785,220.4585,234.9552,128.0068,0,U,61182,999,1141,0,.48E-6,0
GSAT0226 (GALILEO 31),2024-167B,2026-07-18T11:13:13.331424,1.70474105,.00032105,55.1772,220.4619,238.3572,299.1693,0,U,61183,999,1138,0,.49E-6,0
BEIDOU-3 M25 (C47),2024-168B,2026-07-16T23:39:38.722176,1.86229973,.0003354,54.4446,301.2059,291.8969,64.5421,0,U,61186,999,1233,0,-.8E-6,0
BEIDOU-3 M27 (C49),2024-168C,2026-07-17T22:27:09.303840,1.86230103,.00008788,54.4391,301.1555,44.5579,3.6126,0,U,61187,999,983,0,-.86E-6,0
GPS BIII-7  (PRN 01),2024-242A,2026-07-18T17:31:48.133344,2.00572257,.0017973,54.8343,332.9022,4.3275,341.4140,0,U,62339,999,1188,0,-.106E-5,0
QZS-6 (QZSS/PRN 200),2025-023A,2026-07-18T20:22:59.641824,1.00274631,.0001886,0.0111,34.9418,79.6341,218.2776,0,U,62876,999,526,0,-.24E-5,0
COSMOS 2584 (704K),2025-042A,2026-07-13T21:18:41.244768,2.13103784,.000546,65.0996,71.8945,213.8001,146.2394,0,U,63130,999,1061,0,-.1E-6,0
GPS BIII-8  (PRN 21),2025-116A,2026-07-18T18:00:38.461824,2.00573645,.0008385,55.2563,29.8607,339.2651,204.0818,0,U,64202,999,850,0,-.89E-6,0
COSMOS 2596 (708K),2025-206B,2026-07-18T10:19:41.409696,2.13100852,.0011191,64.6143,313.8972,307.2351,53.5674,0,U,65590,999,658,0,-.74E-6,0
GSAT0233 (GALILEO 33),2025-302A,2026-07-18T07:30:10.718784,1.70473961,.00010389,54.3525,101.2437,152.4729,26.5070,0,U,67160,999,365,0,-.32E-6,0
GSAT0234 (GALILEO 34),2025-302C,2026-07-16T20:22:49.584000,1.70473930,.00022161,54.3544,101.2845,322.1435,218.7937,0,U,67162,999,368,0,-.28E-6,0
GPS BIII-9  (PRN 20),2026-017A,2026-07-17T02:39:54.509184,2.00570476,.0021542,55.1074,87.5541,260.3436,99.4686,0,U,67588,999,43221,0,-.28E-6,0
GPS BIII-10 (PRN 13),2026-087A,2026-07-18T13:40:45.776064,2.00572969,.0020524,54.9614,206.5464,106.1004,72.9013,0,U,68791,999,146,0,.5E-6,0
