GSAT0225 (GALILEO 29)   
1 59598U 24079A   26198.02265471 -.00000028  00000+0  00000+0 0  9990
2 59598  55.1373 100.2459 0000523 335.7440 200.6347  1.70473788 13820
GSAT0227 (GALILEO 30)   
1 59600U 24079C   26199.09194252 -.00000031  00000+0  00000+0 0  9994
2 59600  55.1327 100.2144 0002950  69.2435 290.8270  1.70473877 13895
GSAT0232 (GALILEO 32)   
1 61182U 24167A   26199.33190344  .00000048  00000+0  00000+0 0  9992
2 61182  55.1785 220.4585 0006523 234.9552 128.0068  1.70474036 11417
GSAT0226 (GALILEO 31)   
1 61183U 24167B   26199.46751541  .00000049  00000+0  00000+0 0  9990
2 61183  55.1772 220.4619 0003210 238.3572 299.1693  1.70474105 11389
BEIDOU-3 M25            
1 61186U 24168B   26197.98586484 -.00000080  00000+0  00000+0 0  9997
2 61186  54.4446 301.2059 0003354 291.8969  64.5421  1.86229973 12338
BEIDOU-3 M27            
1 61187U 24168C   26198.93552435 -.00000086  00000+0  00000+0 0  9999
2 61187  54.4391 301.1555 0000878  44.5579   3.6126  1.86230103  9830
NAVSTAR 83 (USA 440)    
1 62339U 24242A   26199.73041821 -.00000106  00000+0  00000+0 0  9996
2 62339  54.8343 332.9022 0017973   4.3275 341.4140  2.00572257 11886
QZS-6 (MICHIBIKI-6)     
1 62876U 25023A   26199.84930141 -.00000240  00000+0  00000+0 0  9993
2 62876   0.0111  34.9418 0001886  79.6341 218.2776  1.00274631  5266
COSMOS 2584 [GLONASS-K2]
1 63130U 25042A   26194.88797737 -.00000010  00000+0  00000+0 0  9994
2 63130  65.0996  71.8945 0005460 213.8001 146.2394  2.13103784 10610
NAVSTAR 84 (USA 545)    
1 64202U 25116A   26199.75044516 -.00000089  00000+0  00000+0 0  9994
2 64202  55.2563  29.8607 0008385 339.2651 204.0818  2.00573645  8505
COSMOS 2596 [GLONASS-K1]
1 65590U 25206B   26199.43034039 -.00000074  00000+0  00000+0 0  9993
2 65590  64.6143 313.8972 0011191 307.2351  53.5674  2.13100852  6589
GSAT0233 (GALILEO 33)   
1 67160U 25302A   26199.31262406 -.00000032  00000+0  00000+0 0  9997
2 67160  54.3525 101.2437 0001038 152.4729  26.5070  1.70473961  3658
GSAT0234 (GALILEO 34)   
1 67162U 25302C   26197.84918500 -.00000028  00000+0  00000+0 0  9993
2 67162  54.3544 101.2845 0002216 322.1435 218.7937  1.70473930  3689
NAVSTAR 85 (USA 581)    
1 67588U 26017A   26198.11104756 -.00000028  00000+0  00000+0 0  9990
2 67588  55.1074  87.5541 0021542 260.3436  99.4686  2.00570476432211
NAVSTAR 86 (USA 585)    
1 68791U 26087A   26199.56997426  .00000050  00000+0  00000+0 0  9992
2 68791  54.9614 206.5464 0020524 106.1004  72.9013  2.00572969  1467
